******** Week 935 almanac for PRN-01 ********
ID:                         01
Health:                     000
Eccentricity:               4.4012069702E-004
Time of Applicability(s):  430080.0000
Orbital Inclination(rad):   0.0257241388
Rate of Right Ascen(r/s):   6.0573951700E-010
SQRT(A)  (m 1/2):           6493.442871
Right Ascen at Week(rad):  -9.5255860000E-003
Argument of Perigee(rad):   2.991413837
Mean Anom(rad):            -5.1248403100E-001
Af0(s):                     8.8024140000E-004
Af1(s/s):                   0.0000000000E+000
week:                        935

******** Week 935 almanac for PRN-10 ********
ID:                         10
Health:                     000
Eccentricity:               9.3970298767E-003
Time of Applicability(s):  430080.0000
Orbital Inclination(rad):  -0.0803901807
Rate of Right Ascen(r/s):  -2.5715356900E-009
SQRT(A)  (m 1/2):           6492.927246
Right Ascen at Week(rad):  -2.5962913210E+000
Argument of Perigee(rad):  -2.425557311
Mean Anom(rad):             2.9377642100E-001
Af0(s):                    -4.4822690000E-005
Af1(s/s):                  -1.4551900000E-011
week:                        935

******** Week 935 almanac for PRN-11 ********
ID:                         11
Health:                     000
Eccentricity:               2.3159980774E-003
Time of Applicability(s):  393216.0000
Orbital Inclination(rad):   0.0425859432
Rate of Right Ascen(r/s):  -6.9831480200E-009
SQRT(A)  (m 1/2):           5282.585938
Right Ascen at Week(rad):  -1.6721637700E+000
Argument of Perigee(rad):  -1.704282616
Mean Anom(rad):            -7.3443450000E-002
Af0(s):                     2.9468540000E-004
Af1(s/s):                   1.8189900000E-011
week:                        935

******** Week 935 almanac for PRN-12 ********
ID:                         12
Health:                     000
Eccentricity:               1.4076232910E-003
Time of Applicability(s):  385024.0000
Orbital Inclination(rad):   0.0410100176
Rate of Right Ascen(r/s):  -6.9831480200E-009
SQRT(A)  (m 1/2):           5282.578613
Right Ascen at Week(rad):  -1.6845760560E+000
Argument of Perigee(rad):  -1.647633185
Mean Anom(rad):            -4.3084262300E-001
Af0(s):                     8.3351140000E-004
Af1(s/s):                  -1.0913900000E-011
week:                        935

******** Week 935 almanac for PRN-13 ********
ID:                         13
Health:                     000
Eccentricity:               4.9266815186E-003
Time of Applicability(s):  430080.0000
Orbital Inclination(rad):   0.0859448689
Rate of Right Ascen(r/s):  -1.4172018900E-009
SQRT(A)  (m 1/2):           6493.631836
Right Ascen at Week(rad):  -4.2280532700E-001
Argument of Perigee(rad):  -2.416211863
Mean Anom(rad):            -1.8313139020E+000
Af0(s):                     3.9291380000E-004
Af1(s/s):                   3.6379800000E-012
week:                        935

******** Week 935 almanac for PRN-14 ********
ID:                         14
Health:                     000
Eccentricity:               1.0094642639E-003
Time of Applicability(s):  405504.0000
Orbital Inclination(rad):   0.0310211662
Rate of Right Ascen(r/s):  -6.6288475500E-009
SQRT(A)  (m 1/2):           5282.579590
Right Ascen at Week(rad):   3.8471459200E-001
Argument of Perigee(rad):  -0.289647855
Mean Anom(rad):            -1.8983173290E+000
Af0(s):                    -2.9563900000E-004
Af1(s/s):                   7.6397600000E-011
week:                        935

******** Week 935 almanac for PRN-15 ********
ID:                         15
Health:                     000
Eccentricity:               2.1969318390E-002
Time of Applicability(s):  421888.0000
Orbital Inclination(rad):  -0.1488680418
Rate of Right Ascen(r/s):  -1.2090789300E-007
SQRT(A)  (m 1/2):           5704.388184
Right Ascen at Week(rad):   3.0563582250E+000
Argument of Perigee(rad):  -1.414647868
Mean Anom(rad):             2.1552302740E+000
Af0(s):                    -9.0217590000E-004
Af1(s/s):                  -1.3060300000E-009
week:                        935

******** Week 935 almanac for PRN-16 ********
ID:                         16
Health:                     000
Eccentricity:               6.2789916992E-003
Time of Applicability(s):  430080.0000
Orbital Inclination(rad):   0.0185935249
Rate of Right Ascen(r/s):  -1.9886542600E-009
SQRT(A)  (m 1/2):           6493.739746
Right Ascen at Week(rad):   1.7362123360E+000
Argument of Perigee(rad):  -2.299013634
Mean Anom(rad):             2.4577068670E+000
Af0(s):                    -2.1457670000E-004
Af1(s/s):                  -2.1827900000E-011
week:                        935

******** Week 935 almanac for PRN-19 ********
ID:                         19
Health:                     000
Eccentricity:               6.6184997559E-004
Time of Applicability(s):  430080.0000
Orbital Inclination(rad):   0.0337475773
Rate of Right Ascen(r/s):  -6.4231246900E-009
SQRT(A)  (m 1/2):           5282.584961
Right Ascen at Week(rad):   3.8577107600E-001
Argument of Perigee(rad):  -1.119965515
Mean Anom(rad):            -1.2878117010E+000
Af0(s):                    -9.5558170000E-004
Af1(s/s):                   7.2759600000E-012
week:                        935

******** Week 935 almanac for PRN-02 ********
ID:                         02
Health:                     000
Eccentricity:               7.9584121704E-004
Time of Applicability(s):  421888.0000
Orbital Inclination(rad):   0.0360185880
Rate of Right Ascen(r/s):   2.2858095000E-011
SQRT(A)  (m 1/2):           6493.327148
Right Ascen at Week(rad):   1.6461081900E-001
Argument of Perigee(rad):  -1.192398919
Mean Anom(rad):             1.8407012950E+000
Af0(s):                     2.3078920000E-004
Af1(s/s):                   3.2741800000E-011
week:                        935

******** Week 935 almanac for PRN-20 ********
ID:                         20
Health:                     000
Eccentricity:               4.7445297241E-004
Time of Applicability(s):  430080.0000
Orbital Inclination(rad):   0.0337355931
Rate of Right Ascen(r/s):  -6.4231246900E-009
SQRT(A)  (m 1/2):           5282.587402
Right Ascen at Week(rad):   3.8639537900E-001
Argument of Perigee(rad):  -0.431897234
Mean Anom(rad):            -1.2367045990E+000
Af0(s):                     4.9591060000E-005
Af1(s/s):                  -3.2741800000E-011
week:                        935

******** Week 935 almanac for PRN-21 ********
ID:                         21
Health:                     000
Eccentricity:               4.3821334839E-004
Time of Applicability(s):  430080.0000
Orbital Inclination(rad):   0.0330165396
Rate of Right Ascen(r/s):  -6.4231246900E-009
SQRT(A)  (m 1/2):           5282.583984
Right Ascen at Week(rad):   3.8751403200E-001
Argument of Perigee(rad):  -0.777021190
Mean Anom(rad):             3.0771156510E+000
Af0(s):                    -9.6893310000E-004
Af1(s/s):                   0.0000000000E+000
week:                        935

******** Week 935 almanac for PRN-22 ********
ID:                         22
Health:                     000
Eccentricity:               3.8385391235E-004
Time of Applicability(s):  430080.0000
Orbital Inclination(rad):   0.0330285238
Rate of Right Ascen(r/s):  -6.4231246900E-009
SQRT(A)  (m 1/2):           5282.585449
Right Ascen at Week(rad):   3.8743988000E-001
Argument of Perigee(rad):   0.516180790
Mean Anom(rad):             2.5647091430E+000
Af0(s):                    -1.9550320000E-004
Af1(s/s):                   1.4551900000E-011
week:                        935

******** Week 935 almanac for PRN-23 ********
ID:                         23
Health:                     000
Eccentricity:               2.3841857910E-004
Time of Applicability(s):  430080.0000
Orbital Inclination(rad):   0.0027024427
Rate of Right Ascen(r/s):  -6.7202799300E-009
SQRT(A)  (m 1/2):           5282.596680
Right Ascen at Week(rad):   2.4808442860E+000
Argument of Perigee(rad):   0.507163410
Mean Anom(rad):            -2.5691601590E+000
Af0(s):                    -8.0776210000E-004
Af1(s/s):                   7.2759600000E-012
week:                        935

******** Week 935 almanac for PRN-24 ********
ID:                         24
Health:                     000
Eccentricity:               8.4447860718E-004
Time of Applicability(s):  430080.0000
Orbital Inclination(rad):   0.0026904585
Rate of Right Ascen(r/s):  -6.7202799300E-009
SQRT(A)  (m 1/2):           5282.586426
Right Ascen at Week(rad):   2.4806648970E+000
Argument of Perigee(rad):   0.782642541
Mean Anom(rad):            -1.2844546200E+000
Af0(s):                     6.7043300000E-004
Af1(s/s):                   3.6379800000E-011
week:                        935

******** Week 935 almanac for PRN-25 ********
ID:                         25
Health:                     000
Eccentricity:               6.1702728271E-004
Time of Applicability(s):  430080.0000
Orbital Inclination(rad):   0.0041645182
Rate of Right Ascen(r/s):  -6.7088508800E-009
SQRT(A)  (m 1/2):           5282.570312
Right Ascen at Week(rad):   2.4567466310E+000
Argument of Perigee(rad):   0.732424144
Mean Anom(rad):            -2.0452555360E+000
Af0(s):                     2.7275090000E-004
Af1(s/s):                   7.2759600000E-012
week:                        935

